start=new Date('2023-05-17T00:00:00.000Z').valueOf();
sats=[{"TIME_SYSTEM":"UTC","REF_FRAME":"TEME","MEAN_ELEMENT_THEORY":"SGP4","PERIOD":"95.593","ELEMENT_SET_NO":"999","DECAY_DATE":null,"RCS_SIZE":"LARGE","CLASSIFICATION_TYPE":"U","ARG_OF_PERICENTER":"107.2046","TLE_LINE2":"2 45669  53.0548   1.2762 0000960 107.2046 252.9048 15.06386393163790","MEAN_ANOMALY":"252.9048","COUNTRY_CODE":"US","OBJECT_NAME":"STARLINK-1452","MEAN_MOTION_DDOT":"0.0000000000000","ECCENTRICITY":"0.00009600","LAUNCH_DATE":"2020-06-04","CENTER_NAME":"EARTH","EPHEMERIS_TYPE":"0","SITE":"AFETR","REV_AT_EPOCH":"16379","MEAN_MOTION_DOT":"0.00016521","OBJECT_TYPE":"PAYLOAD","RA_OF_ASC_NODE":"1.2762","OBJECT_ID":"2020-035N","APOAPSIS":"547.920","EPOCH":"2023-05-16T17:41:22.793568","FILE":"3909742","MEAN_MOTION":"15.06386393","GP_ID":"231995452","TLE_LINE1":"1 45669U 20035N   23136.73706937  .00016521  00000-0  11258-2 0  9991","PERIAPSIS":"546.590","INCLINATION":"53.0548","BSTAR":"0.00112580000000","NORAD_CAT_ID":"45669","SEMIMAJOR_AXIS":"6925.390"},{"CLASSIFICATION_TYPE":"U","RCS_SIZE":"LARGE","DECAY_DATE":null,"ELEMENT_SET_NO":"999","PERIOD":"95.591","MEAN_ELEMENT_THEORY":"SGP4","REF_FRAME":"TEME","TIME_SYSTEM":"UTC","MEAN_MOTION_DDOT":"0.0000000000000","OBJECT_NAME":"STARLINK-1453","COUNTRY_CODE":"US","MEAN_ANOMALY":"285.9576","TLE_LINE2":"2 45670  53.0533 331.0171 0001031  74.1527 285.9576 15.06424821164118","ARG_OF_PERICENTER":"74.1527","MEAN_MOTION":"15.06424821","EPOCH":"2023-05-16T19:04:56.277120","FILE":"3909742","OBJECT_ID":"2020-035P","APOAPSIS":"547.851","OBJECT_TYPE":"PAYLOAD","RA_OF_ASC_NODE":"331.0171","MEAN_MOTION_DOT":"0.00011376","REV_AT_EPOCH":"16411","SITE":"AFETR","EPHEMERIS_TYPE":"0","CENTER_NAME":"EARTH","LAUNCH_DATE":"2020-06-04","ECCENTRICITY":"0.00010310","SEMIMAJOR_AXIS":"6925.272","NORAD_CAT_ID":"45670","BSTAR":"0.00078084000000","INCLINATION":"53.0533","PERIAPSIS":"546.423","TLE_LINE1":"1 45670U 20035P   23136.79509580  .00011376  00000-0  78084-3 0  9998","GP_ID":"231995203"},{"REF_FRAME":"TEME","MEAN_ELEMENT_THEORY":"SGP4","TIME_SYSTEM":"UTC","CLASSIFICATION_TYPE":"U","DECAY_DATE":null,"RCS_SIZE":"LARGE","PERIOD":"95.591","ELEMENT_SET_NO":"999","MEAN_ANOMALY":"259.9029","TLE_LINE2":"2 45671  53.0548   1.2590 0000927 100.2065 259.9029 15.06410553163780","ARG_OF_PERICENTER":"100.2065","MEAN_MOTION_DDOT":"0.0000000000000","OBJECT_NAME":"STARLINK-1454","COUNTRY_CODE":"US","EPHEMERIS_TYPE":"0","LAUNCH_DATE":"2020-06-04","CENTER_NAME":"EARTH","ECCENTRICITY":"0.00009270","MEAN_MOTION":"15.06410553","OBJECT_ID":"2020-035Q","APOAPSIS":"547.823","FILE":"3909742","EPOCH":"2023-05-16T17:46:39.243072","MEAN_MOTION_DOT":"0.00009445","RA_OF_ASC_NODE":"1.2590","OBJECT_TYPE":"PAYLOAD","SITE":"AFETR","REV_AT_EPOCH":"16378","GP_ID":"231993952","SEMIMAJOR_AXIS":"6925.316","NORAD_CAT_ID":"45671","INCLINATION":"53.0548","BSTAR":"0.00065190000000","TLE_LINE1":"1 45671U 20035Q   23136.74073198  .00009445  00000-0  65190-3 0  9993","PERIAPSIS":"546.539"},{"MEAN_MOTION":"15.06407409","OBJECT_ID":"2020-035R","APOAPSIS":"548.080","EPOCH":"2023-05-16T19:36:47.259360","FILE":"3909564","MEAN_MOTION_DOT":"0.00010806","RA_OF_ASC_NODE":"330.9147","OBJECT_TYPE":"PAYLOAD","SITE":"AFETR","REV_AT_EPOCH":"16381","EPHEMERIS_TYPE":"0","LAUNCH_DATE":"2020-06-04","CENTER_NAME":"EARTH","ECCENTRICITY":"0.00012840","SEMIMAJOR_AXIS":"6925.326","NORAD_CAT_ID":"45672","INCLINATION":"53.0558","BSTAR":"0.00074309000000","TLE_LINE1":"1 45672U 20035R   23136.81721365  .00010806  00000-0  74309-3 0  9993","PERIAPSIS":"546.302","GP_ID":"231971188","CLASSIFICATION_TYPE":"U","DECAY_DATE":null,"RCS_SIZE":"LARGE","ELEMENT_SET_NO":"999","PERIOD":"95.592","REF_FRAME":"TEME","MEAN_ELEMENT_THEORY":"SGP4","TIME_SYSTEM":"UTC","MEAN_MOTION_DDOT":"0.0000000000000","OBJECT_NAME":"STARLINK-1455","COUNTRY_CODE":"US","MEAN_ANOMALY":"289.2310","TLE_LINE2":"2 45672  53.0558 330.9147 0001284  70.8818 289.2310 15.06407409163816","ARG_OF_PERICENTER":"70.8818"},{"RCS_SIZE":"LARGE","DECAY_DATE":null,"CLASSIFICATION_TYPE":"U","ELEMENT_SET_NO":"999","PERIOD":"95.591","TIME_SYSTEM":"UTC","MEAN_ELEMENT_THEORY":"SGP4","REF_FRAME":"TEME","OBJECT_NAME":"STARLINK-1456","MEAN_MOTION_DDOT":"0.0000000000000","COUNTRY_CODE":"US","TLE_LINE2":"2 45673  53.0545   0.5980 0000961 100.0058 260.1039 15.06424212163829","MEAN_ANOMALY":"260.1039","ARG_OF_PERICENTER":"100.0058","FILE":"3909742","EPOCH":"2023-05-16T21:18:57.581280","APOAPSIS":"547.805","OBJECT_ID":"2020-035S","MEAN_MOTION":"15.06424212","REV_AT_EPOCH":"16382","SITE":"AFETR","OBJECT_TYPE":"PAYLOAD","RA_OF_ASC_NODE":"0.5980","MEAN_MOTION_DOT":"0.00018593","EPHEMERIS_TYPE":"0","ECCENTRICITY":"0.00009610","CENTER_NAME":"EARTH","LAUNCH_DATE":"2020-06-04","NORAD_CAT_ID":"45673","SEMIMAJOR_AXIS":"6925.274","TLE_LINE1":"1 45673U 20035S   23136.88816645  .00018593  00000-0  12630-2 0  9996","PERIAPSIS":"546.474","BSTAR":"0.00126300000000","INCLINATION":"53.0545","GP_ID":"231994953"},{"ELEMENT_SET_NO":"999","PERIOD":"95.591","DECAY_DATE":null,"RCS_SIZE":"LARGE","CLASSIFICATION_TYPE":"U","TIME_SYSTEM":"UTC","REF_FRAME":"TEME","MEAN_ELEMENT_THEORY":"SGP4","COUNTRY_CODE":"US","OBJECT_NAME":"STARLINK-1457","MEAN_MOTION_DDOT":"0.0000000000000","ARG_OF_PERICENTER":"73.2562","TLE_LINE2":"2 45674  53.0547   0.5631 0000943  73.2562 286.8530 15.06422630163795","MEAN_ANOMALY":"286.8530","SITE":"AFETR","REV_AT_EPOCH":"16379","MEAN_MOTION_DOT":"0.00018856","RA_OF_ASC_NODE":"0.5631","OBJECT_TYPE":"PAYLOAD","APOAPSIS":"547.797","OBJECT_ID":"2020-035T","EPOCH":"2023-05-16T21:29:35.132064","FILE":"3909742","MEAN_MOTION":"15.06422630","ECCENTRICITY":"0.00009430","LAUNCH_DATE":"2020-06-04","CENTER_NAME":"EARTH","EPHEMERIS_TYPE":"0","TLE_LINE1":"1 45674U 20035T   23136.89554551  .00018856  00000-0  12806-2 0  9990","PERIAPSIS":"546.491","INCLINATION":"53.0547","BSTAR":"0.00128060000000","NORAD_CAT_ID":"45674","SEMIMAJOR_AXIS":"6925.279","GP_ID":"231995702"},{"ARG_OF_PERICENTER":"69.4410","TLE_LINE2":"2 45675  53.0551   0.6139 0000992  69.4410 290.6685 15.06422134163780","MEAN_ANOMALY":"290.6685","COUNTRY_CODE":"US","OBJECT_NAME":"STARLINK-1458","MEAN_MOTION_DDOT":"0.0000000000000","TIME_SYSTEM":"UTC","REF_FRAME":"TEME","MEAN_ELEMENT_THEORY":"SGP4","ELEMENT_SET_NO":"999","PERIOD":"95.591","DECAY_DATE":null,"RCS_SIZE":"LARGE","CLASSIFICATION_TYPE":"U","GP_ID":"231994451","TLE_LINE1":"1 45675U 20035U   23136.88448378  .00018255  00000-0  12405-2 0  9997","PERIAPSIS":"546.459","INCLINATION":"53.0551","BSTAR":"0.00124050000000","NORAD_CAT_ID":"45675","SEMIMAJOR_AXIS":"6925.281","ECCENTRICITY":"0.00009920","CENTER_NAME":"EARTH","LAUNCH_DATE":"2020-06-04","EPHEMERIS_TYPE":"0","SITE":"AFETR","REV_AT_EPOCH":"16378","MEAN_MOTION_DOT":"0.00018255","OBJECT_TYPE":"PAYLOAD","RA_OF_ASC_NODE":"0.6139","APOAPSIS":"547.833","OBJECT_ID":"2020-035U","EPOCH":"2023-05-16T21:13:39.398592","FILE":"3909742","MEAN_MOTION":"15.06422134"},{"OBJECT_NAME":"STARLINK-1460","MEAN_MOTION_DDOT":"0.0000000000000","COUNTRY_CODE":"US","TLE_LINE2":"2 45676  53.0547   0.4483 0000980  96.8923 263.2178 15.06423298163781","MEAN_ANOMALY":"263.2178","ARG_OF_PERICENTER":"96.8923","DECAY_DATE":null,"RCS_SIZE":"LARGE","CLASSIFICATION_TYPE":"U","PERIOD":"95.591","ELEMENT_SET_NO":"999","TIME_SYSTEM":"UTC","REF_FRAME":"TEME","MEAN_ELEMENT_THEORY":"SGP4","NORAD_CAT_ID":"45676","SEMIMAJOR_AXIS":"6925.277","TLE_LINE1":"1 45676U 20035V   23136.92133640  .00011898  00000-0  81575-3 0  9997","PERIAPSIS":"546.463","INCLINATION":"53.0547","BSTAR":"0.00081575000000","GP_ID":"231994701","APOAPSIS":"547.821","OBJECT_ID":"2020-035V","FILE":"3909742","EPOCH":"2023-05-16T22:06:43.464960","MEAN_MOTION":"15.06423298","SITE":"AFETR","REV_AT_EPOCH":"16378","MEAN_MOTION_DOT":"0.00011898","OBJECT_TYPE":"PAYLOAD","RA_OF_ASC_NODE":"0.4483","EPHEMERIS_TYPE":"0","ECCENTRICITY":"0.00009800","CENTER_NAME":"EARTH","LAUNCH_DATE":"2020-06-04"},{"TIME_SYSTEM":"UTC","MEAN_ELEMENT_THEORY":"SGP4","REF_FRAME":"TEME","ELEMENT_SET_NO":"999","PERIOD":"95.591","RCS_SIZE":"LARGE","DECAY_DATE":null,"CLASSIFICATION_TYPE":"U","ARG_OF_PERICENTER":"112.4262","TLE_LINE2":"2 45677  53.0542   1.2924 0001064 112.4262 247.6840 15.06416329163791","MEAN_ANOMALY":"247.6840","COUNTRY_CODE":"US","OBJECT_NAME":"STARLINK-1392","MEAN_MOTION_DDOT":"0.0000000000000","ECCENTRICITY":"0.00010640","CENTER_NAME":"EARTH","LAUNCH_DATE":"2020-06-04","EPHEMERIS_TYPE":"0","REV_AT_EPOCH":"16379","SITE":"AFETR","OBJECT_TYPE":"PAYLOAD","RA_OF_ASC_NODE":"1.2924","MEAN_MOTION_DOT":"0.00018938","EPOCH":"2023-05-16T17:36:02.118240","FILE":"3909742","OBJECT_ID":"2020-035W","APOAPSIS":"547.900","MEAN_MOTION":"15.06416329","GP_ID":"231995453","TLE_LINE1":"1 45677U 20035W   23136.73335785  .00018938  00000-0  12863-2 0  9996","PERIAPSIS":"546.427","BSTAR":"0.00128630000000","INCLINATION":"53.0542","NORAD_CAT_ID":"45677","SEMIMAJOR_AXIS":"6925.299"},{"NORAD_CAT_ID":"45678","SEMIMAJOR_AXIS":"6925.287","PERIAPSIS":"546.510","TLE_LINE1":"1 45678U 20035X   23136.85960025  .00018306  00000-0  12440-2 0  9991","INCLINATION":"53.0540","BSTAR":"0.00124400000000","GP_ID":"231995204","OBJECT_ID":"2020-035X","APOAPSIS":"547.794","FILE":"3909742","EPOCH":"2023-05-16T20:37:49.461600","MEAN_MOTION":"15.06420192","SITE":"AFETR","REV_AT_EPOCH":"16393","MEAN_MOTION_DOT":"0.00018306","RA_OF_ASC_NODE":"350.7268","OBJECT_TYPE":"PAYLOAD","EPHEMERIS_TYPE":"0","ECCENTRICITY":"0.00009270","LAUNCH_DATE":"2020-06-04","CENTER_NAME":"EARTH","OBJECT_NAME":"STARLINK-1393","MEAN_MOTION_DDOT":"0.0000000000000","COUNTRY_CODE":"US","TLE_LINE2":"2 45678  53.0540 350.7268 0000927  91.7176 268.3919 15.06420192163939","MEAN_ANOMALY":"268.3919","ARG_OF_PERICENTER":"91.7176","DECAY_DATE":null,"RCS_SIZE":"LARGE","CLASSIFICATION_TYPE":"U","PERIOD":"95.591","ELEMENT_SET_NO":"999","TIME_SYSTEM":"UTC","REF_FRAME":"TEME","MEAN_ELEMENT_THEORY":"SGP4"}];
